OBJECT_NAME,OBJECT_ID,EPOCH,MEAN_MOTION,ECCENTRICITY,INCLINATION,RA_OF_ASC_NODE,ARG_OF_PERICENTER,MEAN_ANOMALY,EPHEMERIS_TYPE,CLASSIFICATION_TYPE,NORAD_CAT_ID,ELEMENT_SET_NO,REV_AT_EPOCH,BSTAR,MEAN_MOTION_DOT,MEAN_MOTION_DDOT
ARIRANG-3 (KOMPSAT-3),2012-025B,2026-05-11T11:46:03.766368,14.62173320,.0004342,98.1154,89.5902,218.9966,141.0922,0,U,38338,999,74598,.60549E-4,.258E-5,0
METOP-B,2012-049A,2026-05-11T12:22:28.208064,14.21422276,.000352,98.6529,183.7414,95.1530,265.0049,0,U,38771,999,70805,.46195E-4,.58E-6,0
SJ-9A,2012-056A,2026-05-11T10:51:19.215072,14.85393229,.0026173,97.6688,104.7410,21.7515,338.4806,0,U,38860,999,69413,.99615E-4,.81E-5,0
COSMOS 2484 (RODNIK-S 6),2013-001C,2026-05-11T12:30:53.291232,12.42937994,.0027524,82.5015,244.6859,113.7374,246.6597,0,U,39059,999,60400,-.35404E-3,-.39E-6,0
SARAL,2013-009A,2026-05-11T12:27:51.509088,14.32846839,.0002662,98.5563,318.5507,55.2690,304.8744,0,U,39086,999,69035,.35629E-4,.53E-6,0
STRAND-1,2013-009E,2026-05-11T12:06:11.716128,14.37141086,.0008295,98.3917,312.6433,349.0918,11.0088,0,U,39090,999,69179,.74739E-4,.179E-5,0
BRITE-AUSTRIA,2013-009F,2026-05-11T10:21:46.158336,14.36527080,.0010037,98.3988,311.7791,357.0743,3.0383,0,U,39091,999,69177,.51969E-4,.11E-5,0
GAOFEN-1,2013-018A,2026-05-11T12:52:26.886720,14.76534726,.0017761,97.9099,204.3460,28.5706,331.6473,0,U,39150,999,70283,.38635E-4,.219E-5,0
NEE-01 PEGASO,2013-018B,2026-05-11T08:25:49.773792,14.93478823,.0011195,98.1174,274.3002,287.0471,72.9521,0,U,39151,999,70520,.19616E-3,.2004E-4,0
PROBA-V,2013-021A,2026-05-11T08:38:33.905760,14.23588997,.0003135,98.3569,111.7894,230.7809,129.3093,0,U,39159,999,67587,.39933E-4,.5E-6,0
ARIRANG-5 (KOMPSAT-5),2013-042A,2026-05-11T12:28:36.803424,15.04561113,.0001878,97.6223,318.7346,260.7590,99.3424,0,U,39227,999,69834,.75186E-4,.993E-5,0
GONETS-M 5,2013-048A,2026-05-11T13:39:52.933824,12.42891113,.0015881,82.4859,6.2130,295.7315,64.2125,0,U,39249,999,57433,.5542E-3,.87E-6,0
GONETS-M 7,2013-048C,2026-05-11T12:47:30.341184,12.42914135,.001671,82.4925,9.1382,297.0574,62.8800,0,U,39251,999,57428,.10529E-2,.156E-5,0
FENGYUN 3C,2013-052A,2026-05-11T12:07:51.713760,14.15746343,.0015584,98.4962,107.0698,126.1262,234.1357,0,U,39260,999,65337,.42804E-4,.43E-6,0
CASSIOPE,2013-055A,2026-05-11T10:49:38.354304,15.22518416,.0301203,80.9131,111.2261,185.5726,174.2136,0,U,39265,999,66207,.22523E-3,.19741E-3,-.62001E-6
APRIZESAT 7,2013-066A,2026-05-11T09:21:54.588096,14.91478334,.0035207,97.7685,85.1468,335.8043,24.1520,0,U,39416,999,67574,.79436E-4,.746E-5,0
ZACUBE-1 (TSHEPISOSAT),2013-066B,2026-05-11T03:26:31.322112,15.00898646,.0042131,97.8120,93.2797,17.8518,342.4174,0,U,39417,999,67517,.24836E-3,.3157E-4,0
APRIZESAT 8,2013-066K,2026-05-11T08:22:01.426368,14.87571375,.0047155,97.8200,79.3385,48.4592,312.0654,0,U,39425,999,67419,.86277E-4,.742E-5,0
TRITON-1,2013-066M,2026-05-11T13:21:53.103168,14.81540792,.0090244,97.8260,42.1979,354.8161,5.2109,0,U,39427,999,66866,.16027E-3,.1291E-4,0
