ARIRANG-3 (KOMPSAT-3)   
1 38338U 12025B   26131.49032137  .00000258  00000+0  60549-4 0  9999
2 38338  98.1154  89.5902 0004342 218.9966 141.0922 14.62173320745983
METOP-B                 
1 38771U 12049A   26131.51560426  .00000058  00000+0  46195-4 0  9995
2 38771  98.6529 183.7414 0003520  95.1530 265.0049 14.21422276708055
SJ-9A                   
1 38860U 12056A   26131.45230573  .00000810  00000+0  99615-4 0  9993
2 38860  97.6688 104.7410 0026173  21.7515 338.4806 14.85393229694139
COSMOS 2484 (RODNIK-S 6)
1 39059U 13001C   26131.52145013 -.00000039  00000+0 -35404-3 0  9997
2 39059  82.5015 244.6859 0027524 113.7374 246.6597 12.42937994604002
SARAL                   
1 39086U 13009A   26131.51934617  .00000053  00000+0  35629-4 0  9994
2 39086  98.5563 318.5507 0002662  55.2690 304.8744 14.32846839690357
STRAND-1                
1 39090U 13009E   26131.50430227  .00000179  00000+0  74739-4 0  9990
2 39090  98.3917 312.6433 0008295 349.0918  11.0088 14.37141086691795
BRITE-AUSTRIA           
1 39091U 13009F   26131.43178424  .00000110  00000+0  51969-4 0  9996
2 39091  98.3988 311.7791 0010037 357.0743   3.0383 14.36527080691771
GAOFEN-1                
1 39150U 13018A   26131.53642230  .00000219  00000+0  38635-4 0  9999
2 39150  97.9099 204.3460 0017761  28.5706 331.6473 14.76534726702834
NEE-01 PEGASO           
1 39151U 13018B   26131.35127053  .00002004  00000+0  19616-3 0  9992
2 39151  98.1174 274.3002 0011195 287.0471  72.9521 14.93478823705204
PROBA-V                 
1 39159U 13021A   26131.36011465  .00000050  00000+0  39933-4 0  9998
2 39159  98.3569 111.7894 0003135 230.7809 129.3093 14.23588997675877
ARIRANG-5 (KOMPSAT-5)   
1 39227U 13042A   26131.51987041  .00000993  00000+0  75186-4 0  9992
2 39227  97.6223 318.7346 0001878 260.7590  99.3424 15.04561113698347
GONETS-M 5              
1 39249U 13048A   26131.56936266  .00000087  00000+0  55420-3 0  9992
2 39249  82.4859   6.2130 0015881 295.7315  64.2125 12.42891113574336
GONETS-M 7              
1 39251U 13048C   26131.53299006  .00000156  00000+0  10529-2 0  9993
2 39251  82.4925   9.1382 0016710 297.0574  62.8800 12.42914135574286
FENGYUN 3C              
1 39260U 13052A   26131.50545965  .00000043  00000+0  42804-4 0  9991
2 39260  98.4962 107.0698 0015584 126.1262 234.1357 14.15746343653371
CASSIOPE                
1 39265U 13055A   26131.45113836  .00019741 -62001-6  22523-3 0  9998
2 39265  80.9131 111.2261 0301203 185.5726 174.2136 15.22518416662076
APRIZESAT 7             
1 39416U 13066A   26131.39021514  .00000746  00000+0  79436-4 0  9996
2 39416  97.7685  85.1468 0035207 335.8043  24.1520 14.91478334675749
ZACUBE-1 (TSHEPISOSAT)  
1 39417U 13066B   26131.14341808  .00003157  00000+0  24836-3 0  9993
2 39417  97.8120  93.2797 0042131  17.8518 342.4174 15.00898646675179
APRIZESAT 8             
1 39425U 13066K   26131.34862762  .00000742  00000+0  86277-4 0  9996
2 39425  97.8200  79.3385 0047155  48.4592 312.0654 14.87571375674196
TRITON-1                
1 39427U 13066M   26131.55686462  .00001291  00000+0  16027-3 0  9997
2 39427  97.8260  42.1979 0090244 354.8161   5.2109 14.81540792668668
